STARLINK-31261          
1 59084U 24041L   26068.06189244 -.00004585  00000+0 -15712-3 0  9995
2 59084  43.0063 314.4049 0001959 279.6458  80.4173 15.27591407114228
KUIPER-00204            
1 67145U 25301N   26068.39760395  .00020516  00000+0  79568-3 0  9999
2 67145  51.8870  71.6415 0003071 354.8934   5.2016 15.26088400 13737
